#aV2018 12 12  0  0  0.00000000     288 DD+AD WGS84 FIT  NGA
## 2031 259200.00000000   300.00000000 58464 0.0000000000000
+   31     1  2  3  5  6  7  8  9 10 11 12 13 14 15 16 17 18
+         19 20 21 22 23 24 25 26 27 28 29 30 31 32  0  0  0
+          0  0  0  0  0  0  0  0  0  0  0  0  0  0  0  0  0
+          0  0  0  0  0  0  0  0  0  0  0  0  0  0  0  0  0
+          0  0  0  0  0  0  0  0  0  0  0  0  0  0  0  0  0
++         2  2  2  2  2  2  2  2  2  2  2  2  2  2  2  2  2
++         2  2  2  2  2  2  2  2  2  2  2  2  2  2  0  0  0
++         0  0  0  0  0  0  0  0  0  0  0  0  0  0  0  0  0
++         0  0  0  0  0  0  0  0  0  0  0  0  0  0  0  0  0
++         0  0  0  0  0  0  0  0  0  0  0  0  0  0  0  0  0
%c cc cc ccc ccc cccc cccc cccc cccc ccccc ccccc ccccc ccccc
%c cc cc ccc ccc cccc cccc cccc cccc ccccc ccccc ccccc ccccc
%f  0.0000000  0.000000000  0.00000000000  0.000000000000000
%f  0.0000000  0.000000000  0.00000000000  0.000000000000000
%i    0    0    0    0      0      0      0      0         0
%i    0    0    0    0      0      0      0      0         0
/*      NGA, ST. LOUIS,MO.                                  
/*   EPHEMERIS COMPUTED FROM 2 DAYS OF DATA                 
/*   EPOCHA v3 SMOOTHER                                     
/*   G1762 IERS2010 SATAF SATAPC                            
*  2018 12 12 10 50  0.00000000
P  1  19716.676700  13799.944247 -11737.399948   -127.744752                    
V  1 -14452.870837  -2208.885411 -26972.098747     -0.058259                    
P  2   2031.873529 -15562.779248  22022.929804    -83.610384                    
V  2  26030.578164   5457.801639   1288.188647     -0.103427                    
P  3  13289.291227  20142.495279  11133.165533    168.877750                    
V  3   1300.045035  14307.616136 -27273.540503      0.032756                    
P  5  -1796.437627 -25314.282821   7353.416656      0.343708                    
V  5   5722.816984   8307.482930  29711.227134      0.001921                    
P  6  16560.401136  -8796.423037  18855.430137    317.744144                    
V  6  22675.141786   7407.803550 -16471.099820     -0.068883                    
P  7  26012.517005   6089.667769  -2026.798999     71.967371                    
V  7   2007.185612   3235.952611  31238.092094     -0.069776                    
P  8   1411.131841  17729.764639 -19618.614233   -125.304162                    
V  8 -18448.207043  16989.916510  14160.060240     -0.012790                    
P  9  19090.440763   -713.094759  18410.315037    483.942591                    
V  9 -15322.976191  17885.684477  16531.220807     -0.038082                    
P 10 -13039.684152   8833.052950 -21317.886041    152.630802                    
V 10  -7583.417215 -26125.791850  -6357.206227     -0.053334                    
P 11  15250.053087  12096.182562 -18524.502477   -689.545483                    
V 11 -22042.069187   5913.411282 -14945.437391      0.046011                    
P 12 -10069.215703 -23181.438034   8266.946509    285.112116                    
V 12   -249.934124 -10840.392627 -29821.682582     -0.029815                    
P 13   7253.401409 -19778.040689 -16275.054766    -81.820609                    
V 13  17224.144654 -11145.809072  21403.668638      0.011625                    
P 14 -18348.090782  18785.770783   3576.956402    -94.732612                    
V 14  -5091.678688    478.063555 -31430.854074      0.004983                    
P 15  -6506.835546 -15953.222835 -20374.836710   -336.545414                    
V 15  17496.252073 -18654.401443   9528.120668      0.014320                    
P 16   -925.641757  25078.743399   7840.549137     -6.198009                    
V 16  -4009.703797  -9726.217076  30431.946287     -0.021932                    
P 17  21584.028353 -14080.685402  -5769.298749    -19.651125                    
V 17  -4421.416748   6856.045637 -31197.822672      0.050915                    
P 18  10688.483960  16091.911126 -18767.380184      4.656713                    
V 18 -22577.327516  -3654.360264 -16268.388306      0.039884                    
P 19  19194.462842 -18146.688627   3012.008620   -374.660959                    
V 19   4546.512789  -1005.505752 -31828.285136      0.038532                    
P 20 -16962.785904  -1278.840638 -20543.373152    519.850167                    
V 20  -8513.229034 -24492.070146   8475.927905      0.004658                    
P 21 -25929.840979  -2600.405830  -4088.745146   -288.702947                    
V 21  -5348.762462  -4617.589989  30919.954392      0.066755                    
P 22  11103.238739  23864.496147   3944.742606   -596.736602                    
V 22  -2084.088676   5706.697093 -30403.911349     -0.093154                    
P 23  13354.242121   8732.065232  21570.011657   -203.752192                    
V 23 -18547.698550  19219.381701   3343.821935      0.010822                    
P 24 -15919.814484 -15059.268275 -15366.025327    -59.425621                    
V 24  19208.418331   2063.848044 -21802.511536     -0.004499                    
P 25 -15251.564350 -14176.019801  16442.869318   -690.095192                    
V 25  -3805.133069 -20819.839001 -20998.901869     -0.055459                    
P 26  -6260.698085  19990.434294  16228.839982     65.498215                    
V 26  -7730.725654 -19319.984393  20966.091549      0.108513                    
P 27  -8326.305382  21167.655469 -13563.732927    -31.171612                    
V 27 -13542.235707  10717.571531  25459.432610     -0.058014                    
P 28  13424.854629  -6181.048215 -21454.706872    758.193320                    
V 28   5113.692249  28214.562300  -4717.987898      0.014270                    
P 29 -17246.117365  -2586.802423  20012.205236    317.094745                    
V 29  18569.136602 -17341.535208  13745.100600     -0.081701                    
P 30  23334.160565  -2084.849886 -12657.175342    -18.598591                    
V 30  14478.418209   7464.330225  25257.506023     -0.058732                    
P 31 -14514.695781  10117.573407  19958.431296     73.384032                    
V 31 -23806.032315  -8228.986956 -12721.405159     -0.026953                    
P 32 -20555.750126  16098.716785  -4538.506185   -321.767565                    
V 32   2002.450018  -6234.012935 -31021.454315      0.154821                    
EOF
